NORAD_CAT_ID,OBJECT_NAME,OBJECT_TYPE,EPOCH,MEAN_MOTION,ECCENTRICITY,INCLINATION,RA_OF_ASC_NODE,ARG_OF_PERICENTER,MEAN_ANOMALY,BSTAR,MEAN_MOTION_DOT,MEAN_MOTION_DDOT,TLE_LINE0,TLE_LINE1,TLE_LINE2,SEMIMAJOR_AXIS,PERIOD,APOGEE,PERIGEE,DECAYED
54809.0,STARLINK-5414,PAYLOAD,2024-02-26 10:55:18,15.08765488,0.0002117,53.2177,120.6896,108.2419,251.8803,0.0010468,0.00016377,0.0,0 STARLINK-5414,1 54809U 22175BD  24057.45508055  .00016377  00000-0  10468-2 0  9998,2 54809  53.2177 120.6896 0002117 108.2419 251.8803 15.08765488 65922,6918.108,95.442,541.438,538.509,0.0
54809.0,STARLINK-5414,PAYLOAD,2024-02-27 04:24:32,15.08837602,0.000169,53.2175,117.4237,99.9547,260.1636,-5.3277e-05,-1.136e-05,0.0,0 STARLINK-5414,1 54809U 22175BD  24058.18371081 -.00001136  00000-0 -53277-4 0  9992,2 54809  53.2175 117.4237 0001690  99.9547 260.1636 15.08837602 66034,6917.888,95.438,540.922,538.584,0.0
54809.0,STARLINK-5414,PAYLOAD,2024-02-27 09:10:41,15.08837919,0.0001714,53.2177,116.5312,103.1405,256.9778,-4.2864e-05,-9.7e-06,0.0,0 STARLINK-5414,1 54809U 22175BD  24058.38243004 -.00000970  00000-0 -42864-4 0  9992,2 54809  53.2177 116.5312 0001714 103.1405 256.9778 15.08837919 68222,6917.887,95.438,540.937,538.566,0.0
54809.0,STARLINK-5414,PAYLOAD,2024-02-28 10:36:52,15.08836709,0.0001773,53.2181,111.776,103.9692,256.1497,4.0404e-05,3.55e-06,0.0,0 STARLINK-5414,1 54809U 22175BD  24059.44227046  .00000355  00000-0  40404-4 0  9991,2 54809  53.2181 111.7760 0001773 103.9692 256.1497 15.08836709 66226,6917.89,95.438,540.982,538.529,0.0
54809.0,STARLINK-5414,PAYLOAD,2024-02-28 20:09:11,15.08835468,0.0001559,53.2172,109.9909,94.4774,265.6396,5.9198e-05,6.54e-06,0.0,0 STARLINK-5414,1 54809U 22175BD  24059.83971156  .00000654  00000-0  59198-4 0  9994,2 54809  53.2172 109.9909 0001559  94.4774 265.6396 15.08835468 68447,6917.894,95.438,540.838,538.681,0.0
54809.0,STARLINK-5414,PAYLOAD,2024-02-29 12:03:02,15.08834425,0.0001636,53.218,107.0181,96.1782,263.9397,3.6719e-05,2.96e-06,0.0,0 STARLINK-5414,1 54809U 22175BD  24060.50211612  .00000296  00000-0  36719-4 0  9990,2 54809  53.2180 107.0181 0001636  96.1782 263.9397 15.08834425 66386,6917.897,95.438,540.894,538.631,0.0
54809.0,STARLINK-5414,PAYLOAD,2024-02-29 13:38:25,15.08836105,0.0001579,53.2174,106.7196,93.5385,266.5788,5.0816e-05,5.21e-06,0.0,0 STARLINK-5414,1 54809U 22175BD  24060.56835455  .00000521  00000-0  50816-4 0  9998,2 54809  53.2174 106.7196 0001579  93.5385 266.5788 15.08836105 68558,6917.892,95.438,540.85,538.665,0.0
54809.0,STARLINK-5414,PAYLOAD,2024-02-29 19:59:58,15.08833691,0.0001586,53.2175,105.5295,88.743,271.3744,2.2257e-05,6.6e-07,0.0,0 STARLINK-5414,1 54809U 22175BD  24060.83331790  .00000066  00000-0  22257-4 0  9993,2 54809  53.2175 105.5295 0001586  88.7430 271.3744 15.08833691 68598,6917.9,95.438,540.862,538.667,0.0
54809.0,STARLINK-5414,PAYLOAD,2024-03-01 10:18:26,15.08836758,0.0001553,53.2177,102.854,97.8754,262.2415,9.339e-05,1.198e-05,0.0,0 STARLINK-5414,1 54809U 22175BD  24061.42947493  .00001198  00000-0  93390-4 0  9995,2 54809  53.2177 102.8540 0001553  97.8754 262.2415 15.08836758 68688,6917.89,95.438,540.83,538.681,0.0
54809.0,STARLINK-5414,PAYLOAD,2024-03-02 10:09:13,15.0884535,0.0001567,53.2164,98.3917,87.1566,272.9605,9.1944e-05,1.176e-05,0.0,0 STARLINK-5414,1 54809U 22175BD  24062.42306932  .00001176  00000-0  91944-4 0  9992,2 54809  53.2164  98.3917 0001567  87.1566 272.9605 15.08845350 66673,6917.864,95.437,540.813,538.645,0.0
54809.0,STARLINK-5414,PAYLOAD,2024-03-03 02:03:05,15.08832657,0.0001537,53.2163,95.4185,92.4966,267.6202,1.0525e-05,-1.21e-06,0.0,0 STARLINK-5414,1 54809U 22175BD  24063.08548073 -.00000121  00000-0  10525-4 0  9995,2 54809  53.2163  95.4185 0001537  92.4966 267.6202 15.08832657 66778,6917.903,95.438,540.831,538.705,0.0
54809.0,STARLINK-5414,PAYLOAD,2024-03-03 08:24:38,15.08830365,0.0001439,53.2171,94.2281,89.0981,271.0176,3.7928e-05,3.16e-06,0.0,0 STARLINK-5414,1 54809U 22175BD  24063.35044243  .00000316  00000-0  37928-4 0  9996,2 54809  53.2171  94.2281 0001439  89.0981 271.0176 15.08830365 68978,6917.91,95.438,540.77,538.779,0.0
54809.0,STARLINK-5414,PAYLOAD,2024-03-04 01:53:51,15.0884833,0.00016,53.2173,90.9559,90.2778,269.8397,-3.458e-06,-3.43e-06,0.0,0 STARLINK-5414,1 54809U 22175BD  24064.07907333 -.00000343  00000-0 -34580-5 0  9998,2 54809  53.2173  90.9559 0001600  90.2778 269.8397 15.08848330 66923,6917.855,95.437,540.827,538.613,0.0
54809.0,STARLINK-5414,PAYLOAD,2024-03-04 08:15:23,15.0885509,0.0001829,53.2174,89.7716,80.3965,279.7234,7.1051e-05,8.43e-06,0.0,0 STARLINK-5414,1 54809U 22175BD  24064.34402527  .00000843  00000-0  71051-4 0  9999,2 54809  53.2174  89.7716 0001829  80.3965 279.7234 15.08855090 66961,6917.834,95.437,540.965,538.434,0.0
54809.0,STARLINK-5414,PAYLOAD,2024-03-05 01:44:39,15.088335,0.0001706,53.2176,86.4945,86.2169,273.9019,-4.5006e-06,-3.6e-06,0.0,0 STARLINK-5414,1 54809U 22175BD  24065.07268208 -.00000360  00000-0 -45006-5 0  9994,2 54809  53.2176  86.4945 0001706  86.2169 273.9019 15.08833500 67078,6917.9,95.438,540.945,538.585,0.0
54809.0,STARLINK-5414,PAYLOAD,2024-03-05 11:16:59,15.08825581,0.0001625,53.2175,84.7102,83.9232,276.1946,-6.8604e-05,-1.379e-05,0.0,0 STARLINK-5414,1 54809U 22175BD  24065.47013147 -.00001379  00000-0 -68604-4 0  9997,2 54809  53.2175  84.7102 0001625  83.9232 276.1946 15.08825581 69298,6917.924,95.438,540.914,538.665,0.0
54809.0,STARLINK-5414,PAYLOAD,2024-03-06 07:56:59,15.0884632,0.0001602,53.2168,80.8452,92.8342,267.2834,-5.799e-05,-1.211e-05,0.0,0 STARLINK-5414,1 54809U 22175BD  24066.33124091 -.00001211  00000-0 -57990-4 0  9995,2 54809  53.2168  80.8452 0001602  92.8342 267.2834 15.08846320 67267,6917.861,95.437,540.834,538.618,0.0
54809.0,STARLINK-5414,PAYLOAD,2024-03-07 09:23:10,15.08832059,0.0001677,53.2177,76.0888,97.7809,262.3374,0.00015009,2.101e-05,0.0,0 STARLINK-5414,1 54809U 22175BD  24067.39108823  .00002101  00000-0  15009-3 0  9998,2 54809  53.2177  76.0888 0001677  97.7809 262.3374 15.08832059 69587,6917.905,95.438,540.93,538.61,0.0
54809.0,STARLINK-5414,PAYLOAD,2024-03-08 09:13:56,15.08841568,0.0001898,53.2181,71.6282,108.5815,251.5383,0.0001217,1.649e-05,0.0,0 STARLINK-5414,1 54809U 22175BD  24068.38468550  .00001649  00000-0  12170-3 0  9996,2 54809  53.2181  71.6282 0001898 108.5815 251.5383 15.08841568 69736,6917.876,95.437,541.054,538.428,0.0
54809.0,STARLINK-5414,PAYLOAD,2024-03-08 17:10:52,15.08851194,0.0002062,53.2186,70.1382,120.197,239.9226,-9.1049e-05,-1.738e-05,0.0,0 STARLINK-5414,1 54809U 22175BD  24068.71588345 -.00001738  00000-0 -91049-4 0  9992,2 54809  53.2186  70.1382 0002062 120.1970 239.9226 15.08851194 67620,6917.846,95.437,541.138,538.285,0.0
54809.0,STARLINK-5414,PAYLOAD,2024-03-09 04:18:35,15.0883715,0.0001884,53.2189,68.0571,93.8031,266.3177,4.2694e-05,3.91e-06,0.0,0 STARLINK-5414,1 54809U 22175BD  24069.17957186  .00000391  00000-0  42694-4 0  9990,2 54809  53.2189  68.0571 0001884  93.8031 266.3177 15.08837150 67696,6917.889,95.438,541.057,538.451,0.0
54809.0,STARLINK-5414,PAYLOAD,2024-03-09 09:04:44,15.08837921,0.0001762,53.2182,67.1636,87.0266,273.0928,0.00010813,1.433e-05,0.0,0 STARLINK-5414,1 54809U 22175BD  24069.37828930  .00001433  00000-0  10813-3 0  9991,2 54809  53.2182  67.1636 0001762  87.0266 273.0928 15.08837921 69889,6917.887,95.438,540.971,538.533,0.0
54809.0,STARLINK-5414,PAYLOAD,2024-03-09 17:01:39,15.08847135,0.0001602,53.2171,65.6802,85.9572,274.1603,-3.2744e-05,-8.09e-06,0.0,0 STARLINK-5414,1 54809U 22175BD  24069.70948581 -.00000809  00000-0 -32744-4 0  9999,2 54809  53.2171  65.6802 0001602  85.9572 274.1603 15.08847135 67771,6917.859,95.437,540.832,538.615,0.0
54809.0,STARLINK-5414,PAYLOAD,2024-03-10 05:44:44,15.08848462,0.0001434,53.2159,63.2992,101.5417,258.5736,4.3195e-05,4e-06,0.0,0 STARLINK-5414,1 54809U 22175BD  24070.23940180  .00000400  00000-0  43195-4 0  9993,2 54809  53.2159  63.2992 0001434 101.5417 258.5736 15.08848462 70015,6917.855,95.437,540.712,538.728,0.0
54809.0,STARLINK-5414,PAYLOAD,2024-03-10 23:13:58,15.08846119,9.48e-05,53.2148,60.0297,86.7126,273.3975,-6.7198e-05,-1.357e-05,0.0,0 STARLINK-5414,1 54809U 22175BD  24070.96804368 -.00001357  00000-0 -67198-4 0  9993,2 54809  53.2148  60.0297 0000948  86.7126 273.3975 15.08846119 70125,6917.862,95.437,540.382,539.071,0.0
54809.0,STARLINK-5414,PAYLOAD,2024-03-11 05:35:31,15.08838644,0.000163,53.2169,58.8405,85.4334,274.6844,5.3918e-05,5.7e-06,0.0,0 STARLINK-5414,1 54809U 22175BD  24071.23300776  .00000570  00000-0  53918-4 0  9997,2 54809  53.2169  58.8405 0001630  85.4334 274.6844 15.08838644 68007,6917.885,95.438,540.877,538.622,0.0
54809.0,STARLINK-5414,PAYLOAD,2024-03-12 08:37:04,15.08840678,0.0001696,53.2181,53.7851,97.7457,262.3727,0.00010548,1.391e-05,0.0,0 STARLINK-5414,1 54809U 22175BD  24072.35908350  .00001391  00000-0  10548-3 0  9996,2 54809  53.2181  53.7851 0001696  97.7457 262.3727 15.08840678 68176,6917.878,95.438,540.917,538.57,0.0
54809.0,STARLINK-5414,PAYLOAD,2024-03-13 05:17:04,15.08858672,0.0001371,53.2181,49.919,98.7569,261.3579,0.00019061,2.748e-05,0.0,0 STARLINK-5414,1 54809U 22175BD  24073.22018972  .00002748  00000-0  19061-3 0  9991,2 54809  53.2181  49.9190 0001371  98.7569 261.3579 15.08858672 68306,6917.823,95.436,540.637,538.74,0.0
54809.0,STARLINK-5414,PAYLOAD,2024-03-13 08:27:51,15.08843709,0.0001552,53.2181,49.3244,92.2647,267.8522,7.512e-05,9.08e-06,0.0,0 STARLINK-5414,1 54809U 22175BD  24073.35268271  .00000908  00000-0  75120-4 0  9999,2 54809  53.2181  49.3244 0001552  92.2647 267.8522 15.08843709 68323,6917.869,95.437,540.808,538.66,0.0
54809.0,STARLINK-5414,PAYLOAD,2024-03-13 22:46:21,15.0882637,0.0001345,53.218,46.6463,93.225,266.8896,-7.9352e-05,-1.55e-05,0.0,0 STARLINK-5414,1 54809U 22175BD  24073.94885904 -.00001550  00000-0 -79352-4 0  9999,2 54809  53.2180  46.6463 0001345  93.2250 266.8896 15.08826370 70574,6917.922,95.438,540.718,538.857,0.0
